Favorite, Company Name,Contact Name,City,State,Phone
="","ACC Distributors, Inc.","Martha L. McWhorter","Leesburg","GA","(229) 432-9141"
="","ADS Seafood, LLC","Cesar Bencosme","Coral Springs","FL","(305) 594-9797"
="","Affiliated Foods, Inc.","Roger Lowe","Amarillo","TX","(806) 372-3851"
="","Afgan Paper & Food Products, Inc.","Robert Hanna","Bronx","NY","(718) 456-0002"
="","A. F. Wendling, Inc.","Christopher Wendling","Buckhannon","WV","(304) 472-5500"
="","Ambos Seafoods, LLC","Drew Ambos","Savannah","GA","(912) 920-3474"
="","AME Austin Seafood Products, Inc.","Steven Curtis","Austin","TX","(512) 476-3494"
="","American Custom Food Distribution, LLC","William Loiacano","Port Richey","FL","(727) 848-1010"
="","Antonio Sofo & Son Importing Co.","Michael J. Sofo","Toledo","OH","(419) 476-4211"
="","Asami Foods, Co.","Jia (Jay) Zhao","Miami","FL","(305) 885-8400"
="","Associated Grocers, Inc.","Derek Benedetto","Baton Rouge","LA","(225) 769-2020"
="","Atlantic Distributors, Inc.","Forrest (Kenny) M. Wilhoit","Chattanooga","TN","(423) 624-3066"
="","Atlas Wholesale Food Company","John Kohl","Detroit","MI","(313) 921-1251"
="","Avalon Foodservice, Inc.","Andrew Schroer","Canal Fulton","OH","(330) 854-4551"
"Yes","Badger Farms, Inc.","Jay Nichols","Chicago","IL","(773) 276-7200"
="","Bak Foods LLC","Boris J. Smith","Atlanta","GA","(404) 505-9950"
="","Bassham Wholesale Egg Company Inc.","Ronald L. Bassham","Fort Worth","TX","(817) 921-1600"
="","B & B Food Distributors, Inc.","R. Scott Isles","Terre Haute","IN","(812) 238-1438"
="","B & B Food Service, Inc.","Baldomero Barrios","Lockport","IL","(815) 834-2621"
="","Bellissimo Distribution, LLC","Eduardo E. Greco","Bartlett","IL","(630) 837-9900"
="","Ben E. Keith Company","Robert G. Hallam","Fort Worth","TX","(817) 877-5700"
="","Better Brands Food Products, Inc.","Peter S. Imlay","Watsonville","CA","(831) 724-7243"
="","Bi-Rite Restaurant Supply Co., Inc.","William P. Barulich","Brisbane","CA","(415) 656-0254"
="","Blue Ribbon Fish Co. Inc.","David Samuels","Bronx","NY","(718) 620-8580"
="","Bollinger Poultry Co.","Carl Bollinger","Patton","MO","(573) 866-2957"
="","Brown Foodservice, Inc.","Wayne L. Brown","Louisa","KY","(606) 638-1139"
="","Buckhead Meat of Dallas, Inc.","Jay Riscky","Dallas","TX","(214) 331-8711"
="","Buzz Products, Inc.","Dickinson Gould III","Charleston","WV","(304) 925-4781"
="","C.A. Curtze Co.","C. Bruce Kern, Sr.","Erie","PA","(814) 452-2281"
="","Captain Blue, LLC","Il Yeon Kwon","Bronx","NY","(718) 617-1110"
="","Caramagno Foods Company","Dan Caramagno","Detroit","MI","(313) 869-8200"
="","Cash-Wa Distributing Co. of Kearney, Inc.","Thomas J. Henning","Kearney","NE","(308) 237-3151"
="","Cedar Farms Co., Inc.","Peter Pahides","Philadelphia","PA","(215) 934-7100"
="","Centennial Foodservice","David Carriere","Calgary","AB","(403) 214-0044"
="","Certco, Inc.","Amy Niemetscheck","Madison","WI","(608) 271-4500"
="","Chef Center Springfield LLC","Jeffrey Wu","Springfield","VA","(703) 854-1505"
="","Cheung Kong Holding, Inc.","Xin (Victor) C. Guo","East Point","GA","(404) 362-9393"
="","Chicago Food Corporation","Ki Pyo Hong","Chicago","IL","(773) 478-0007"
="","Chicago Seafood & Restaurant Supply Inc.","Terri Bernstein","Chicago","IL","(773) 254-4700"
="","Chi & Hing Food Service, Inc.","Chi Ying Tsang","Phoenix","AZ","(623) 939-8889"
="","Choice Foods, Inc.","John B. Fovos","Vernon","CA","(323) 860-9090"
="","Christ Panos Foods Corporation","Socrate (Sam) Panos","Itasca","IL","(630) 735-3200"
="","City Line Distributors, Inc.","Sean Griffin","West Haven","CT","(203) 931-3707"
="","City Line Distributors, LLC","Sean Griffin","West Haven","CT","(203) 931-3707"
="","Clark Restaurant Service Inc.","D. Alan Clark","Owensboro","KY","(270) 684-1469"
="","Concord Foods, Inc.","John Sciortino","Ontario","CA","(909) 975-2000"
="","Creation Gardens, Inc.","Mollie Turnier","Louisville","KY","(502) 587-9012"
="","C. & R. Food Service, Inc.","Brian Heywood","Mount Morris","NY","(585) 658-2990"
="","Critchfield Meats, Inc.","Larry McMillan","Lexington","KY","(859) 255-6021"
="","Custom Food Service, Inc.","David Schnitzer","Phoenix","AZ","(602) 254-1876"
="","Customized Distribution LLC","Dick DiStasio","Jacksonville","FL","(904) 783-6120"
="","Dallas Maughon, Inc.","Dallas Maughon","Norcross","GA","(770) 300-9339"
="","Denarius Trading Company LLC","Paul Vincent Hagan ","Boston","MA","(617) 571-5642"
="","Dennis Beverage Company","Rick Robertson","Hampden","ME","(207) 947-0321"
="","Derstines, Inc.","Earl L. Derstine","Sellersville","PA","(215) 257-2700"
="","Diaz Wholesale & Mfg. Co., Inc.","Rene M. Diaz","Atlanta","GA","(404) 344-5421"
="","DiCarlo Distributors, Inc.","Vincent DiCarlo, Sr.","Holtsville","NY","(631) 758-6000"
="","Distribution Group, Inc., The","Daniel Van Eerden","Grand Rapids","MI","(616) 475-0900"
="","Ditta Meat Company","Sammy P. Ditta","Pasadena","TX","(281) 487-2010"
="","Dole and Bailey, Inc.","Nancy Matheson-Burns","Woburn","MA","(781) 935-1234"
="","D. W. Richards, Sons, Inc.","Daniel Richards","Avoca","PA","(570) 457-5424"
="","Eberhardt Foods Ltd.","Ted Eberhardt","Edmonton","AB","(780) 454-8331"
="","Empire Foods Limited","Peter Tserpes","Markham","ON","(905) 475-9988"
="","Enson Group, Inc.","Xinsen Zheng","Cincinnati","OH","(513) 751-8888"
="","Eurocorp Imports, Inc.","Henry H. Hagani","Vernon","CA","(323) 415-0300"
="","Evco Wholesale Food Corporation","Charles (Skip) C. Evans","Emporia","KS","(620) 343-7000"
="","Farm House Food Distributors, Inc.","Dan Simon","Cleveland","OH","(216) 791-6948"
="","Favorite Foods, Inc.","Christopher (Chris) L. Barstow","Somersworth","NH","(603) 692-4990"
="","Feesers Inc.","Lester S. Miller, Jr.","Harrisburg","PA","(717) 564-4636"
="","Ferraro Foods of Connecticut LLC","Michael Cipriano","Cheshire","CT","(860) 276-4000"
="","Flanagan Foodservice, Inc.","Daniel Flanagan","Kitchener","ON","(519) 748-6878"
="","Food Exchange LLC, The","Anthony Salant","Carlsbad","CA","(760) 707-5590"
="","Food & Paper Supply Co.","Bruce E. Goldberg","Chicago","IL","(773) 752-0700"
="","FoodPRO Corporation","D. (Jack) Brunk","Frederick","MD","(301) 663-3171"
="","Food Services of America, Inc.","Douglas Minert","Scottsdale","AZ","(480) 927-4000"
="","Food Supply, Inc.","David M. Sacks","South Daytona Beach","FL","(386) 763-7500"
="","Fox River Foods, Inc.","Kevin Pribilsky","Montgomery","IL","(630) 896-1991"
="","G & B Wholesale Foods, Inc.","Esther Pappas","Long Beach","CA","(562) 436-6155"
="","GDS, Inc.","Salvatore Riggio","Sussex","NJ","(973) 875-1008"
="","Ginsberg's Institutional Foods, Inc.","David M. Ginsberg","Hudson","NY","(518) 828-4004"
="","Giordano's Big G Inc.","Carl A. Giordano","Bronx","NY","(718) 892-7798"
="","Glazier Foods Company","James J. Spring III","Houston","TX","(832) 375-6300"
="","Global Seafood Wholesale, Inc.","Thomas Mathew","Stafford","TX","(713) 498-3505"
="","Gordon Food Service Canada Ltd.","Frank Geier","Milton","ON","(905) 864-3700"
="","Gordon Food Service, Inc.","Daniel A. Gordon","Grand Rapids","MI","(616) 530-7000"
="","Green Mountain Food Services LLC","Muhammad Bilal","Whitehall","NY","(518) 499-9101"
="","Halperns' Steak and Seafood Company LLC","Howard  I. Halpern","Chicago","IL","(404) 767-9229"
="","Hillcrest Egg & Cheese Co.","David Marzich","Cleveland","OH","(216) 361-4625"
="","H & M Wagner & Sons, Inc.","Michael Wagner","Glen Burnie","MD","(410) 766-1150"
="","Holt Paper and Chemical Co., Inc., The","John T. Holt, III","Salisbury","MD","(410) 742-7577"
="","Ideal Meat J. & L., Inc.","Jeffrey P. Stein","Indianapolis","IN","(317) 784-7733"
="","Impero Foods & Meats, Inc.","Salvatore "Enzo" Pinna","Baltimore","MD","(410) 732-8488"
="","Institution Food House, Inc.","David Flitman","Hickory","NC","(828) 725-4500"
="","Jack Palmer Food Service, Inc.","Mary C. Palmer","Shelbyville","TN","(931) 684-7011"
="","Jim L. Shetakis Distributing Co.","Charles Jackson","North Las Vegas","NV","(702) 735-8985"
="","J. L. Culpepper & Company, Incorporated","S. Lynn Townsend","Ashland","VA","(804) 752-7177"
="","John Mills Distributing Co., Inc.","John Mills, Sr.","Orchard Park","NY","(716) 822-0854"
="","Jordanos' Inc.","Peter C. Jordano","Santa Barbara","CA","(805) 964-0611"
="","Jose Santiago, Inc","Jose E. Santiago, Jr.","San Juan","PR","(787) 288-8835"
="","Kansas Marine, Inc.","Ernest Doikai","Los Angeles","CA","(213) 599-5700"
="","Kawa Trading Inc.","Jian (Tony) Lin","Philadelphia","PA","(215) 427-1800"
="","Kwik Pak Fisheries LLC","Ragnar Alstrom","Anchorage","AK","(907) 644-0326"
="","Labatt Food Service LLC","Blair Labatt, Jr.","San Antonio","TX","(210) 661-4216"
="","Lacassagne's, LLC","Louis H. Lacassagne III","Baton Rouge","LA","(225) 218-0237"
="","Lamm Food Service, LLC","John D. Lively","Lafayette","LA","(337) 896-0331"
="","Lap International Wholesales, Inc.","Lap Tang","Los Angeles","CA","(323) 222-7533"
="","Larroc, Inc.","Enrique Munoz","El Paso","TX","(915) 772-3733"
="","Lipari Foods Operating Company, LLC","Vincent J. Lipari","Warren","MI","(586) 447-3500"
="","Lnzro Pizza Empire, Inc.","George R. Musak","Syracuse","NY","(315) 487-7777"
="","Lobster Place Inc., The","Brendan Hayes","Bronx","NY","(212) 255-5672"
="","Majestic Meats Inc.","Robert Bacon","Patchogue","NY","(631) 475-2478"
="","Marine Foods Express, Ltd.","Jason Poon","Houston","TX","(713) 986-3698"
="","Martin Brothers Distributing Company, Inc.","John R. Martin","Cedar Falls","IA","(319) 266-1775"
="","Martin-Brower Company, L.L.C., The","Greg Nickele","Rosemont","IL","(847) 227-6500"
="","Maximum Quality Foods, Inc.","Gary Roccaro","Linden","NJ","(908) 474-0003"
="","M.B. Product Research Distributing, Inc.","Michelle Benhaim","Brampton","ON","(905) 660-1421"
="","McLane Company, Inc.","Tony Frankenberger","Temple","TX","(254) 771-7500"
="","McLane Express, Inc.","Stephen E. Milliken","Weatherford","TX","(817) 594-3813"
="","McLane Foodservice Distribution, Inc.","William G. Rosier","Rocky Mount","NC","(252) 985-7200"
="","McLane Foodservice, Inc.","William G. Rosier","Carrollton","TX","(972) 364-2000"
="","Meat and Seafood Solutions, LLC","Bill Mutton","Greensboro","NC","(336) 545-3800"
="","Menu Maker Foods, LLC","Forrest Graves","Jefferson City","MO","(573) 893-3000"
="","Merit Foods, L.L.C.","Matthew Sadowsky","Tucson","AZ","(520) 884-8232"
="","Merrill Distributing, Inc.","Ralph Schewe","Merrill","WI","(715) 536-4551"
="","Mig International Group, Inc.","Sherman Wu","Boulder","CO","(303) 442-8885"
="","MIK Industries, Inc.","Seema Singh","Laurel","MD","(301) 497-1990"
="","Mina Foods, Inc.","Dimos Mitas","Milford","CT","(203) 874-6462"
="","M.I.T., LLC","Alfred Nasti, Jr.","Staten Island","NY","(718) 370-3600"
="","M. J. Kellner Co., Inc.","William L. Kellner","Springfield","IL","(217) 483-1700"
="","M & L Frozen Foods, Inc.","Leonard (Lenny) Tocco","Saint Louis","MO","(314) 231-8055"
="","M. R. Williams, Inc.","Michael R. Williams","Henderson","NC","(252) 438-8104"
="","Nat Kagan Meat & Poultry, Inc.","George Cubillas","Woodridge","NY","(845) 434-4334"
="","Newport Farms, Inc.","Paul Wunsch","Corona","CA","(951) 739-0841"
="","Nicholas & Co., Inc.","Nicole Mouskondis","Salt Lake City","UT","(801) 531-1100"
="","N. Kohl Grocer Company","Richard (Dick) A. Ehrhart","Quincy","IL","(217) 222-5000"
="","Northern Frozen Foods, Inc.","Douglas A. Kern","Bedford","OH","(440) 439-0600"
="","Novick Brothers Corporation","Gary Novick","Philadelphia","PA","(215) 467-1400"
="","Ocean Fresh Seafood of Central Florida, LLC","Todd Angier","Margate","FL","(407) 256-6647"
="","Palisades Ranch, Inc.","Paul Paget","Vernon","CA","(323) 581-6161"
="","Performance Food Group, Inc.","George L. Holm","Richmond","VA","(804) 484-7700"
="","Perrin Bernard Supowitz, LLC","Kenneth D. Sweder","Bell Gardens","CA","(323) 981-2800"
="","Piazza Produce, LLC","Peter S. Piazza","Indianapolis","IN","(317) 872-0101"
="","Piemonte Foods LLC","Angelo Pagliotti","Alpharetta","GA","(470) 571-3335"
="","P & L Food Wholesalers, Inc.","Leo Stassinopoulos","Plymouth","MI","(734) 451-2760"
="","Pratt's Limited","Leonard (Lenny) Baranyk, Jr.","Winnipeg","MB","(204) 949-2800"
="","Premier Foods, Inc.","David I. Silverman","Phoenix","AZ","(602) 252-2263"
="","Pro Food Systems, Inc.","Shawn Burcham","Holts Summit","MO","(573) 896-2500"
="","PSF Acquisition Company","Ron McCormick","Monroeville","PA","(412) 372-0900"
="","Qin's Buffalo, LLC","Bryan Chang","Kansas City","KS","(913) 342-4488"
="","Quirch Foods, LLC","Frank Grande","Coral Gables","FL","(305) 691-3535"
="","Rainmaker, Inc.","Linda Watson","Washington","DC","(954) 566-8684"
="","Rancho Foods, Inc.","Annette MacDonald","Los Angeles","CA","(323) 585-0503"
="","Raw Sea Foods, Inc.","Jason K. Hutchens","Fall River","MA","(508) 673-0111"
="","RDP Foodservice, Ltd.","Richard (Dick) P. DiPaolo, Jr.","Hilliard","OH","(614) 261-5661"
="","Reinhart Foodservice, LLC","Jeff King","La Crosse","WI","(608) 784-2540"
="","Riverside Food Distributors, LLC","Sherri Christiana","Marrero","LA","(504) 348-3391"
="","Royal Lagoon Seafood Co., Inc.","Valmond Martin (Val) Hammond","Mobile","AL","(251) 653-1975"
="","Saladino's, Inc.","Donald F. Saladino","Fresno","CA","(559) 271-3700"
="","S and L Meat Sales Company","Larry J. Stephenson","Chico","CA","(530) 343-7953"
="","Schiff's Food Service, Inc.","Alyn J. Scheatzle","Taylor","PA","(570) 562-3100"
="","Sea Breeze Food Service, Inc.","Michael Griffin","Jacksonville","FL","(904) 356-9905"
="","Seashore Food Distributors, Inc.","Henry T. Satt","Rio Grande","NJ","(609) 886-3100"
="","Shafer-Haggart Ltd.","R. J.  (Clive) Lonsdale","Vancouver","BC","(604) 669-5512"
="","Shaheen Bros, Inc.","Fred P. Shaheen","Amesbury","MA","(978) 388-6776"
="","Shamrock Foods Company","W. Kent McClelland","Phoenix","AZ","(602) 477-2500"
="","Single Source, Inc.","Darlene Zitko","Darien","IL","(630) 985-6400"
="","Slade Gorton & Co., Inc.","Mike Gorton, Sr.","Waltham","MA","(617) 442-5800"
="","Sofo Foods of Georgia, LLC","Michael J. Sofo","Toledo","OH","(800) 447-4211"
="","Southeastern Food Merchandisers, LP","James C. Acomb","Pelham","AL","(205) 664-3322"
="","Southeastern Seaproducts, Inc.","Mark D. Maynard, Sr.","Melbourne","FL","(321) 259-1914"
="","SpartanNash Company","Douglas A. Hacker","Grand Rapids","MI","(616) 878-2000"
="","Stanz Cheese Co Inc","Moe Alkemade","South Bend","IN","(574) 232-6666"
="","Sun Valley Foods Company","Azniv Tatarian","Detroit","MI","(313) 865-4000"
="","Sutherland's Foodservice, Inc.","James E. Sutherland","Forest Park","GA","(404) 366-8550"
="","S & W Wholesale Foods, L.L.C.","Paul Spalitta","Hammond","LA","(985) 542-4444"
="","Sygma Network, Inc., The","Greg Keller","Dublin","OH","(614) 734-2500"
="","Sysco Arkansas, LLC","Walter S. Nunnelly","Little Rock","AR","(501) 562-4111"
="","Sysco Asian Foods, Inc.","Kevin Berg","Saint Paul","MN","(651) 558-2400"
="","Sysco Atlanta, LLC","Marty Turner","Atlanta","GA","(404) 765-9900"
="","Sysco Baltimore, LLC","Keith D. Shapiro","Jessup","MD","(410) 799-7000"
="","Sysco Boston, LLC","James M. Danahy","Plympton","MA","(781) 422-2300"
="","Sysco Canada, Inc.","Tom Bene","Etobicoke","ON","(416) 234-2666"
="","Sysco Central Florida, Inc.","Steve F. Smith","Ocoee","FL","(407) 877-8500"
="","Sysco Columbia, LLC","Michael  K. Brawner","Columbia","SC","(803) 239-4000"
="","Sysco Corporation","Kevin Hourican","Houston","TX","(281) 584-1390"
="","Sysco Detroit, LLC","Sean McCausland","Detroit","MI","(734) 397-7990"
="","Sysco Jacksonville, Inc.","Rick Raywald","Jacksonville","FL","(904) 786-2600"
="","Sysco Kansas City, Inc.","James Graham","Olathe","KS","(913) 829-5555"
="","Sysco Lincoln, Inc.","Kim B. Brown","Lincoln","NE","(402) 477-3757"
="","Sysco Metro New York, LLC","Michael Scanlon","Jersey City","NJ","(201) 433-2000"
="","Sysco Minnesota, Inc.","Philip J. Seipp","Saint Paul","MN","(763) 785-9000"
="","Sysco Montana, Inc.","Steve Bodden","Billings","MT","(406) 247-1100"
="","Sysco Philadelphia, LLC","William G. Tubb","Philadelphia","PA","(215) 463-8200"
="","Sysco Sacramento, Inc.","Paul Winterhalder","Sacramento","CA","(916) 569-7000"
="","Sysco San Francisco, Inc.","James Ehlers","Fremont","CA","(510) 226-3000"
="","Sysco Seattle, Inc.","Kristine Bowen","Kent","WA","(206) 622-2261"
="","Sysco St. Louis, LLC","Justin Woodard","Saint Charles","MO","(636) 940-9230"
="","Sysco USA II, LLC","Nicholas J. Zouboukos","New Orleans","LA","(504) 731-1015"
="","Sysco USA I, Inc.","Thomas Huffhines","Lewisville","TX","(469) 384-6000"
="","Sysco Ventura, Inc.","","Oxnard","CA","(805) 205-7000"
="","Sysco Virginia, LLC","David R. Kraft","Harrisonburg","VA","(540) 434-0761"
="","Systems Services of America, Inc.","Tim Holland","Scottsdale","AZ","(480) 927-4700"
="","Tankersley Food Service, LLC","Danny Loyd","Van Buren","AR","(479) 471-6800"
="","Tapia Enterprises, Inc.","Raul Tapia","Maywood","CA","(323) 560-7415"
="","Tarantino Foods, L.L.C.","John (Phillip) P. Tarantino, Jr.","Buffalo","NY","(716) 823-6600"
="","Tennessee Hotel Supply Company, Inc.","Henry Poss, Jr.","Chattanooga","TN","(423) 267-3821"
="","Texas Mutual Trading, LLC","Yoko Kamisasanuki","Flower Mound","TX","(972) 691-9400"
="","Thurston Foods, Inc.","Peter Malone","Wallingford","CT","(203) 265-1525"
="","Tiffin Paper Company","Thomas M. Maiberger","Tiffin","OH","(419) 447-2121"
="","T.Marzetti Company","","Columbus","OH","(614) 846-2232"
="","Tony's Fine Foods","Peter McGurty","West Sacramento","CA","(916) 374-4000"
="","Tony's Fish & Seafood Corp.","Joseph (Tony) LaRocca","Bronx","NY","(718) 328-5200"
="","Trigger Seafood Corp","Jorge L. Figueroa","Miami","FL","(305) 968-2583"
="","Triple J Five Star Wholesale Foods, Inc.","Robert H. Jones","Tamuning","GU","(671) 637-7576"
="","T.W. Food Distributors, Inc.","Anise Chow","West Palm Beach","FL","(561) 721-9333"
="","Tyson Bros., Inc.","Stanley M. Tyson","Gastonia","NC","(704) 865-2108"
="","UniPro Foodservice, Inc.","Jude Renzi","Atlanta","GA","(770) 952-0871"
="","United Food Service Inc.","W. Kent McClelland","Commerce City","CO","(303) 289-3581"
="","Upper Lakes Foods, Inc.","Susan R. Ryan","Cloquet","MN","(218) 879-1265"
="","US Foods, Inc.","Robert Dutkowsky","Phoenix","AZ","(847) 720-8000"
="","Value, Inc.","Matthew Loussia","Oak Park","MI","(248) 967-2900"
="","Viandex Inc.","Pierre Gagne","Quebec","QC","(418) 681-2482"
="","Wabash Coffee, Inc.","Jayne B. Young","Vincennes","IN","(812) 882-6066"
="","William George Produce Co., Inc.","Randy George","Lufkin","TX","(936) 634-7738"
="","Williams Institutional Foods, Inc.","Robert W. Williams","Douglas","GA","(912) 384-5270"
="","W. Lee Flowers and Company, LLC","Rick Geary","Lake City","SC","(843) 389-2731"
="","Wood-Fruitticher Grocery Company, Inc.","David W. Wood, II","Birmingham","AL","(205) 836-9663"
="","Yamasho Inc.","Kunio Iwadate","Elk Grove Village","IL","(847) 981-9342"
="","Yen Bros Food Service (2011) Ltd.","Johnny  Chew","Vancouver","BC","(604) 255-6522"
="","Yen Bros. Food Service Ltd.","","Vancouver","BC","(604) 255-6522"
="","Y. Hata & Company, Limited","Russell J. Hata","Honolulu","HI","(808) 447-4100"
="","Zimowski Food Specialties Inc.","Thaddeus H. Zimowski, Jr.","Chadwicks","NY","(315) 737-9445"
